[{"OBJECT_NAME":"OBJECT AS","OBJECT_ID":"2023-085AS","EPOCH":"2026-03-09T22:43:55.521696","MEAN_MOTION":15.33336233,"ECCENTRICITY":0.00083243,"INCLINATION":97.4812,"RA_OF_ASC_NODE":180.8852,"ARG_OF_PERICENTER":80.6036,"MEAN_ANOMALY":279.6147,"EPHEMERIS_TYPE":0,"CLASSIFICATION_TYPE":"U","NORAD_CAT_ID":57044,"ELEMENT_SET_NO":999,"REV_AT_EPOCH":15162,"BSTAR":0.00067677795,"MEAN_MOTION_DOT":0.00021782,"MEAN_MOTION_DDOT":0},{"OBJECT_NAME":"STARLINK-32138","OBJECT_ID":"2024-131A","EPOCH":"2026-03-09T22:19:45.668352","MEAN_MOTION":15.30193265,"ECCENTRICITY":0.00018239,"INCLINATION":53.1613,"RA_OF_ASC_NODE":51.4432,"ARG_OF_PERICENTER":104.4371,"MEAN_ANOMALY":255.6832,"EPHEMERIS_TYPE":0,"CLASSIFICATION_TYPE":"U","NORAD_CAT_ID":60255,"ELEMENT_SET_NO":999,"REV_AT_EPOCH":9205,"BSTAR":-5.5456119e-5,"MEAN_MOTION_DOT":-2.001e-5,"MEAN_MOTION_DDOT":0}]
